0 YAOGAN 16B
1 39012U 12066B   13282.47026475 -.00000052  00000-0  64473-4 0  4802
2 39012 063.3848 336.1022 0028766 352.7769 007.2840 13.45084287 42823
0 YAOGAN 16B
1 39012U 12066B   13283.51110009  .00000014  00000-0  10000-3 0  4831
2 39012 063.3846 333.4231 0028861 353.5660 006.5467 13.45083853 43149
0 YAOGAN 16B
1 39012U 12066B   13283.80846932 -.00000049  00000-0  69278-4 0  4846
2 39012 063.3850 332.6652 0028855 352.7641 007.2965 13.45084418 43009
0 YAOGAN 16B
1 39012U 12066B   13286.11315473 -.00000049  00000-0  68874-4 0  4867
2 39012 063.3844 326.7443 0029093 352.7262 007.3341 13.45084590 43312
0 YAOGAN 16B
1 39012U 12066B   13287.15398043 -.00000055  00000-0  60148-4 0  4870
2 39012 063.3842 324.0708 0029129 352.7272 007.3332 13.45084589 43459
0 YAOGAN 16B
1 39012U 12066B   13288.12046119 -.00000049  00000-0  70290-4 0  4885
2 39012 063.3841 321.5888 0029271 352.6536 007.4062 13.45084744 43587
0 YAOGAN 16B
1 39012U 12066B   13289.08694212 -.00000061  00000-0  50200-4 0  4898
2 39012 063.3840 319.1057 0029399 352.6898 007.3691 13.45084667 43715
0 YAOGAN 16B
1 39012U 12066B   13290.12776796 -.00000061  00000-0  48930-4 0  4902
2 39012 063.3836 316.4323 0029451 352.7116 007.3482 13.45084680 43857
0 YAOGAN 16B
1 39012U 12066B   13291.16859329 -.00000064  00000-0  44128-4 0  4910
2 39012 063.3836 313.7589 0029530 352.7130 007.3462 13.45084726 43999
0 YAOGAN 16B
1 39012U 12066B   13292.06072937 -.00000064  00000-0  44100-4 0  4923
2 39012 063.3834 311.4668 0029624 352.6693 007.3899 13.45084775 44110
0 YAOGAN 16B
1 39012U 12066B   13292.95286528 -.00000021  00000-0  11785-3 0  4930
2 39012 063.3824 309.1709 0029992 352.7455 007.3140 13.45085165 44230
0 YAOGAN 16B
1 39012U 12066B   13293.17589907 -.00000064  00000-0  43604-4 0  4946
2 39012 063.3831 308.6016 0029716 352.7104 007.3471 13.45084826 44261
0 YAOGAN 16B
1 39012U 12066B   13294.43975835 -.00000048  00000-0  71727-4 0  4955
2 39012 063.3830 305.3553 0029780 352.7582 007.3014 13.45085107 44436
0 YAOGAN 16B
1 39012U 12066B   13295.25754968 -.00000050  00000-0  68748-4 0  4961
2 39012 063.3828 303.2540 0029924 352.8520 007.2074 13.45085137 44549
